OBJECT_NAME,OBJECT_ID,EPOCH,MEAN_MOTION,ECCENTRICITY,INCLINATION,RA_OF_ASC_NODE,ARG_OF_PERICENTER,MEAN_ANOMALY,EPHEMERIS_TYPE,CLASSIFICATION_TYPE,NORAD_CAT_ID,ELEMENT_SET_NO,REV_AT_EPOCH,BSTAR,MEAN_MOTION_DOT,MEAN_MOTION_DDOT
ALOS-2,2014-029A,2026-07-12T13:39:32.245344,14.79471192,.00016088,97.9227,290.3703,93.8084,266.3312,0,U,39766,999,65533,.1661811E-3,.119E-4,0
KAZEOSAT 2,2014-033A,2026-07-12T14:59:29.006592,14.85496617,.00072808,97.5401,31.8918,229.6351,130.4230,0,U,40010,999,65273,.8164066E-5,.2E-6,0
HODOYOSHI-4,2014-033B,2026-07-12T14:02:10.645152,14.88183035,.00225298,97.5457,17.1832,218.7307,141.2296,0,U,40011,999,65258,.57592225E-4,.481E-5,0
DEIMOS-2,2014-033D,2026-07-12T15:18:54.512352,14.93790086,.00008767,97.5804,67.2297,91.0543,269.0778,0,U,40013,999,64152,.27136931E-4,.234E-5,0
HODOYOSHI-3,2014-033F,2026-07-12T10:42:16.909920,14.85434110,.00313014,97.6441,355.4739,271.3924,88.3706,0,U,40015,999,65137,.64978116E-4,.511E-5,0
SPOT 7,2014-034A,2026-07-12T14:10:46.722720,14.60980255,.00015884,98.0624,255.4266,96.3191,263.8191,0,U,40053,999,64084,.91280369E-4,.402E-5,0
SKYSAT-B,2014-037D,2026-07-12T08:11:04.828704,14.88088006,.00053456,98.3853,153.7429,181.7675,178.3522,0,U,40072,999,64970,.76702501E-4,.644E-5,0
WORLDVIEW-3 (WV-3),2014-048A,2026-07-12T13:39:56.304288,14.85061713,.0001102,97.8558,268.0512,159.7704,200.3554,0,U,40115,999,64567,.53566765E-4,.404E-5,0
GAOFEN-2,2014-049A,2026-07-12T15:34:44.833728,14.80924253,.000807,98.0103,257.8307,141.7874,218.3912,0,U,40118,999,64300,-.2010627E-5,-.69E-6,0
YAOGAN-21,2014-053A,2026-07-12T14:17:44.356992,15.26737411,.00081104,97.1466,232.7444,17.3801,342.7715,0,U,40143,999,65883,.18032306E-3,.4675E-4,0
YAOGAN-22,2014-063A,2026-07-12T08:36:21.547872,13.15531629,.00068152,100.7757,345.0533,131.1733,228.9967,0,U,40275,999,56312,.25187707E-4,-.37E-6,0
ASNARO,2014-070A,2026-07-12T15:25:07.567680,15.19805009,.00069122,97.3450,269.0724,95.5998,264.6026,0,U,40298,999,64787,.19840051E-3,.4184E-4,0
YAOGAN-24,2014-072A,2026-07-12T13:39:42.603840,14.76118135,.00144075,98.1513,331.1234,177.8338,182.2936,0,U,40310,999,62746,.1105361E-3,.711E-5,0
CBERS 4,2014-079A,2026-07-12T14:49:34.830336,14.35516288,.0000916,98.3525,249.6499,51.6013,308.5255,0,U,40336,999,60760,.94843845E-4,.231E-5,0
YAOGAN-26,2014-088A,2026-07-12T14:30:52.864128,15.48366448,.00023838,97.0642,193.2358,356.0056,4.1176,0,U,40362,999,64163,.21663679E-3,.11381E-3,0
SMAP,2015-003A,2026-07-12T14:01:04.543968,14.63387828,.00015791,98.1282,200.3194,95.9531,264.1851,0,U,40376,999,61133,.48500059E-4,.204E-5,0
KOMPSAT-3A,2015-014A,2026-07-12T14:26:55.138848,15.55316901,.00565067,97.6885,186.8476,84.7705,275.9993,0,U,40536,999,62576,.30302807E-3,.2199E-3,0
SENTINEL-2A,2015-028A,2026-07-12T14:23:00.002112,14.30815234,.0001281,98.5682,268.0894,95.1686,264.9643,0,U,40697,999,57736,.17263627E-3,.409E-5,0
GAOFEN-8,2015-030A,2026-07-12T15:32:06.013248,15.46879423,.00099905,97.6895,28.5625,103.6684,256.5678,0,U,40701,999,61538,.26527953E-3,.13269E-3,0
CARBONITE 1 (CBNT-1),2015-032D,2026-07-12T14:36:47.272608,14.83664090,.00136066,97.6518,10.6136,205.8949,154.1586,0,U,40718,999,59311,.11590201E-3,.907E-5,0
YAOGAN-27,2015-040A,2026-07-12T13:43:01.712640,13.16069976,.00084496,100.1161,178.8537,150.9470,209.2115,0,U,40878,999,52100,-.60115869E-3,-.271E-5,0
GAOFEN-9 01,2015-047A,2026-07-12T15:16:07.634208,14.82932138,.00285956,97.6271,228.1736,58.5202,301.8801,0,U,40894,999,58396,.70953287E-4,.529E-5,0
YAOGAN-28,2015-064A,2026-07-12T13:00:51.638976,15.27738377,.00120757,97.3100,331.2965,101.1195,259.1403,0,U,41026,999,59455,.15233709E-3,.4063E-4,0
YAOGAN-29,2015-069A,2026-07-12T14:42:52.081056,14.83103585,.00009858,98.0026,222.2848,14.5007,345.6234,0,U,41038,999,57439,-.25848916E-4,-.264E-5,0
KENT RIDGE 1,2015-077B,2026-07-11T21:58:50.952000,15.23273349,.0008276,14.9799,82.0545,228.7650,131.1958,0,U,41167,999,58487,.79609E-4,.2707E-4,0
GAOFEN-4,2015-083A,2026-07-12T15:43:29.885664,1.00268114,.00044792,0.4195,83.8199,121.7292,66.5406,0,U,41194,999,3878,0,-.334E-5,0
JASON-3,2016-002A,2026-07-12T15:12:42.847200,12.87628493,.00082089,66.0416,72.3376,271.1718,88.8360,0,U,41240,999,49052,.10844235E-3,-.35E-6,0
SENTINEL-3A,2016-011A,2026-07-12T14:29:08.967264,14.26739303,.00013731,98.6238,260.6208,91.0630,269.0708,0,U,41335,999,54168,.34102547E-4,.39E-6,0
ZIYUAN 3-02 (ZY 3-02),2016-033A,2026-07-12T15:28:12.148320,15.21418898,.00138047,97.3832,268.9292,193.8763,166.2096,0,U,41556,999,56185,.13730664E-3,.302E-4,0
CARTOSAT-2C,2016-040A,2026-07-12T14:46:58.740960,15.19253622,.00097928,97.4481,253.2416,53.5958,306.6178,0,U,41599,999,55757,.11687023E-3,.2397E-4,0
