ALOS-2                  
1 39766U 14029A   26193.56912321  .00001190  00000+0  16618-3 0  9992
2 39766  97.9227 290.3703 0001608  93.8084 266.3312 14.79471192655330
KAZEOSAT 2              
1 40010U 14033A   26193.62464128  .00000020  00000+0  81641-5 0  9996
2 40010  97.5401  31.8918 0007280 229.6351 130.4230 14.85496617652735
HODOYOSHI-4             
1 40011U 14033B   26193.58484543  .00000481  00000+0  57592-4 0  9993
2 40011  97.5457  17.1832 0022529 218.7307 141.2296 14.88183035652587
DEIMOS-2                
1 40013U 14033D   26193.63813093  .00000234  00000+0  27137-4 0  9995
2 40013  97.5804  67.2297 0000876  91.0543 269.0778 14.93790086641523
HODOYOSHI-3             
1 40015U 14033F   26193.44602905  .00000511  00000+0  64978-4 0  9996
2 40015  97.6441 355.4739 0031301 271.3924  88.3706 14.85434110651370
SPOT 7                  
1 40053U 14034A   26193.59081855  .00000402  00000+0  91280-4 0  9995
2 40053  98.0624 255.4266 0001588  96.3191 263.8191 14.60980255640846
SKYSAT-B                
1 40072U 14037D   26193.34102811  .00000644  00000+0  76703-4 0  9999
2 40072  98.3853 153.7429 0005345 181.7675 178.3522 14.88088006649701
WORLDVIEW-3 (WV-3)      
1 40115U 14048A   26193.56940167  .00000404  00000+0  53567-4 0  9994
2 40115  97.8558 268.0512 0001102 159.7704 200.3554 14.85061713645679
GAOFEN-2                
1 40118U 14049A   26193.64913002 -.00000069  00000+0 -20106-5 0  9998
2 40118  98.0103 257.8307 0008070 141.7874 218.3912 14.80924253643003
YAOGAN-21               
1 40143U 14053A   26193.59565228  .00004675  00000+0  18032-3 0  9996
2 40143  97.1466 232.7444 0008110  17.3801 342.7715 15.26737411658839
YAOGAN-22               
1 40275U 14063A   26193.35858273 -.00000037  00000+0  25188-4 0  9992
2 40275 100.7757 345.0533 0006815 131.1733 228.9967 13.15531629563125
ASNARO                  
1 40298U 14070A   26193.64244870  .00004184  00000+0  19840-3 0  9992
2 40298  97.3450 269.0724 0006912  95.5998 264.6026 15.19805009647872
YAOGAN-24               
1 40310U 14072A   26193.56924310  .00000711  00000+0  11054-3 0  9995
2 40310  98.1513 331.1234 0014407 177.8338 182.2936 14.76118135627460
CBERS 4                 
1 40336U 14079A   26193.61776424  .00000231  00000+0  94844-4 0  9993
2 40336  98.3525 249.6499 0000916  51.6013 308.5255 14.35516288607605
YAOGAN-26               
1 40362U 14088A   26193.60477852  .00011381  00000+0  21664-3 0  9991
2 40362  97.0642 193.2358 0002383 356.0056   4.1176 15.48366448641635
SMAP                    
1 40376U 15003A   26193.58408037  .00000204  00000+0  48500-4 0  9991
2 40376  98.1282 200.3194 0001579  95.9531 264.1851 14.63387828611336
KOMPSAT-3A              
1 40536U 15014A   26193.60202707  .00021990  00000+0  30303-3 0  9996
2 40536  97.6885 186.8476 0056506  84.7705 275.9993 15.55316901625762
SENTINEL-2A             
1 40697U 15028A   26193.59930558  .00000409  00000+0  17264-3 0  9992
2 40697  98.5682 268.0894 0001281  95.1686 264.9643 14.30815234577363
GAOFEN-8                
1 40701U 15030A   26193.64729182  .00013269  00000+0  26528-3 0  9997
2 40701  97.6895  28.5625 0009990 103.6684 256.5678 15.46879423615382
CARBONITE 1 (CBNT-1)    
1 40718U 15032D   26193.60888047  .00000907  00000+0  11590-3 0  9997
2 40718  97.6518  10.6136 0013606 205.8949 154.1586 14.83664090593118
YAOGAN-27               
1 40878U 15040A   26193.57154760 -.00000271  00000+0 -60116-3 0  9991
2 40878 100.1161 178.8537 0008449 150.9470 209.2115 13.16069976521005
GAOFEN-9 01             
1 40894U 15047A   26193.63619947  .00000529  00000+0  70953-4 0  9991
2 40894  97.6271 228.1736 0028595  58.5202 301.8801 14.82932138583962
YAOGAN-28               
1 41026U 15064A   26193.54226434  .00004063  00000+0  15234-3 0  9990
2 41026  97.3100 331.2965 0012075 101.1195 259.1403 15.27738377594559
YAOGAN-29               
1 41038U 15069A   26193.61310279 -.00000264  00000+0 -25849-4 0  9992
2 41038  98.0026 222.2848 0000985  14.5007 345.6234 14.83103585574393
KENT RIDGE 1            
1 41167U 15077B   26192.91586750  .00002707  00000+0  79609-4 0  9990
2 41167  14.9799  82.0545 0008276 228.7650 131.1958 15.23273349584876
GAOFEN-4                
1 41194U 15083A   26193.65520701 -.00000334  00000+0  00000+0 0  9992
2 41194   0.4195  83.8199 0004479 121.7292  66.5406  1.00268114 38782
JASON-3                 
1 41240U 16002A   26193.63382925 -.00000035  00000+0  10844-3 0  9997
2 41240  66.0416  72.3376 0008208 271.1718  88.8360 12.87628493490522
SENTINEL-3A             
1 41335U 16011A   26193.60357601  .00000039  00000+0  34103-4 0  9990
2 41335  98.6238 260.6208 0001373  91.0630 269.0708 14.26739303541685
ZIYUAN 3-02 (ZY 3-02)   
1 41556U 16033A   26193.64458505  .00003020  00000+0  13731-3 0  9994
2 41556  97.3832 268.9292 0013804 193.8763 166.2096 15.21418898561858
CARTOSAT-2C             
1 41599U 16040A   26193.61595765  .00002397  00000+0  11687-3 0  9990
2 41599  97.4481 253.2416 0009792  53.5958 306.6178 15.19253622557574
